[{"OBJECT_NAME":"STARLINK-31220","OBJECT_ID":"2024-038S","EPOCH":"2026-03-09T22:03:24.958368","MEAN_MOTION":15.27583421,"ECCENTRICITY":2.166e-5,"INCLINATION":42.998,"RA_OF_ASC_NODE":25.684,"ARG_OF_PERICENTER":175.7406,"MEAN_ANOMALY":184.3447,"EPHEMERIS_TYPE":0,"CLASSIFICATION_TYPE":"U","NORAD_CAT_ID":59039,"ELEMENT_SET_NO":999,"REV_AT_EPOCH":11479,"BSTAR":0.00018130086,"MEAN_MOTION_DOT":4.731e-5,"MEAN_MOTION_DDOT":0},{"OBJECT_NAME":"CZ-6A DEB","OBJECT_ID":"2024-140YZ","EPOCH":"2026-03-09T14:14:13.172928","MEAN_MOTION":14.91044947,"ECCENTRICITY":0.0161166,"INCLINATION":89.0861,"RA_OF_ASC_NODE":285.7767,"ARG_OF_PERICENTER":146.5264,"MEAN_ANOMALY":214.6281,"EPHEMERIS_TYPE":0,"CLASSIFICATION_TYPE":"U","NORAD_CAT_ID":61432,"ELEMENT_SET_NO":999,"REV_AT_EPOCH":8368,"BSTAR":0.0010034,"MEAN_MOTION_DOT":0.0001278,"MEAN_MOTION_DDOT":0}]
